ALOS (DAICHI)           
1 28931U 06002A   26059.85707610  .00001528  00000+0  26448-3 0  9999
2 28931  98.1203  15.8580 0001285  51.6110 308.5211 14.69775150 72188
H-2A R/B                
1 28932U 06002B   26059.96435554  .00010384  00000+0  52325-3 0  9990
2 28932  98.2385 206.2404 0051973 271.0719  88.4557 15.16195570 93112
RESURS-DK 1             
1 29228U 06021A   26060.00528229  .00002851  00000+0  16864-3 0  9997
2 29228  69.9304 259.4889 0002575 166.8522 193.2711 15.12677599 86213
CZ-4B R/B               
1 29507U 06046C   26060.09935762  .00004854  00000+0  24749-3 0  9993
2 29507  97.5614 105.0312 0031842 298.6675  61.1357 15.16798297 58742
CZ-2C R/B               
1 31114U 07010B   26059.91961635  .00000126  00000+0  77000-4 0  9996
2 31114  98.3976 173.6383 0058157 320.5696  39.1256 14.20242548978475
COSMO-SKYMED 1          
1 31598U 07023A   26060.17272397  .00003238  00000+0  29056-3 0  9990
2 31598  97.8867 251.1373 0000930  83.0988 277.0338 14.96456278 13638
COSMOS 2428             
1 31792U 07029A   26059.89772062  .00000111  00000+0  85409-4 0  9995
2 31792  70.9415 221.7971 0008612 286.5734  73.4441 14.12943652962851
SL-16 R/B               
1 31793U 07029B   26059.80607631 -.00000233  00000+0 -96075-4 0  9994
2 31793  70.9755 191.0569 0002449 279.3263 189.0790 14.14834537964115
KORONAS-FOTON           
1 33504U 09003A   26060.07540545  .00012492  00000+0  28134-3 0  9999
2 33504  82.4291 284.8337 0010526 179.1996 180.9270 15.43077401944415
CZ-2C R/B               
1 37731U 11030B   26059.89794889  .00001910  00000+0  24646-3 0  9995
2 37731  97.8527  17.3383 0053257  20.5653  43.2004 14.81180047788795
H-2A R/B                
1 38341U 12025E   26059.89454640  .00004309  00000+0  39203-3 0  9996
2 38341  98.4703  26.2382 0044269 343.2437  16.7316 14.95073204746901
SHIJIAN-16 (SJ-16)      
1 39358U 13057A   26060.18198668  .00001448  00000+0  14428-3 0  9993
2 39358  74.9715 201.1923 0015878 134.5633 225.6855 14.92294183670239
